STARLINK-36606          
1 67845U 26033AA  26077.25002315 -.01867177  00000+0 -30958-1 0  9998
2 67845  43.0001 219.6101 0001850 259.8882  65.4727 15.54742265  6048
STARLINK-36658          
1 67846U 26033AB  26077.25002315  .00068336  00000+0  11623-2 0  9995
2 67846  42.9999 219.9978 0002266 280.9984 246.8450 15.50533194  6041
STARLINK-36618          
1 67847U 26033AC  26077.25002315 -.00660763  00000+0 -25285-2 0  9999
2 67847  42.9756 215.8695 0001671 280.2361  82.6441 15.87994043  6045
STARLINK-36660          
1 67848U 26033AD  26077.25002315  .00066529  00000+0  11317-2 0  9999
2 67848  43.0001 220.0833 0001617 254.9039 237.9431 15.50542603  6048
STARLINK-36602          
1 67849U 26033AE  26077.25002315  .00069067  00000+0  11752-2 0  9993
2 67849  42.9999 220.0340 0002100 274.5375 238.3179 15.50520181  6046
STARLINK-36840          
1 67850U 26034A   26076.63406050  .00431528  00000+0  20602-2 0  9990
2 67850  53.1589 171.5435 0001773 223.9160 136.1723 15.81106853  5192
STARLINK-36348          
1 67851U 26034B   26076.75975577  .00267546  00000+0  13162-2 0  9999
2 67851  53.1587 170.9037 0001068  87.7609 272.3536 15.80893524  5218
STARLINK-36276          
1 67852U 26034C   26076.00037456  .00277545  00000+0  13598-2 0  9996
2 67852  53.1589 174.7015 0001982  80.0427 280.0819 15.80955802  5092
STARLINK-36785          
1 67853U 26034D   26076.69503507  .00387956  00000+0  18621-2 0  9997
2 67853  53.1583 171.2112 0000928 181.8459 178.2560 15.81105538  5209
STARLINK-36608          
1 67854U 26034E   26076.75750554  .00281784  00000+0  13818-2 0  9996
2 67854  53.1585 170.8889 0001183  39.4554 320.6554 15.80925059  5209
STARLINK-36838          
1 67855U 26034F   26076.75675556  .00329841  00000+0  16089-2 0  9995
2 67855  53.1589 170.8833 0001462  81.2632 278.8556 15.80910899  5218
STARLINK-36843          
1 67856U 26034G   26076.62881524  .00171121  00000+0  85209-3 0  9993
2 67856  53.1583 171.5075 0001255  66.4070 293.7085 15.80907630  5199
